{
  "type": "FeatureCollection",
  "features": [
    {
      "type": "Feature",
      "properties": {
        "norad_id": 30004,
        "name": "FENGYUN 1C DEB",
        "group": "fengyun-1c-debris",
        "lat": -19.721590883981733,
        "lon": 161.39952139006584,
        "alt_km": 816.0852808509526,
        "timestamp": "2025-12-03T06:58:43.510971+00:00",
        "meta_object_name": "FENGYUN 1C DEB",
        "meta_object_id": "1999-025MD",
        "meta_epoch": "2025-12-02T10:53:21.037344",
        "meta_mean_motion": 14.17013982,
        "meta_eccentricity": 0.00388619,
        "meta_inclination": 99.2239,
        "meta_ra_of_asc_node": 157.1924,
        "meta_arg_of_pericenter": 11.9169,
        "meta_mean_anomaly": 20.7006,
        "meta_ephemeris_type": 0,
        "meta_classification_type": "U",
        "meta_norad_cat_id": 30004,
        "meta_element_set_no": 999,
        "meta_rev_at_epoch": 97161,
        "meta_bstar": 0.00085965211,
        "meta_mean_motion_dot": 1.693e-05,
        "meta_mean_motion_ddot": 0,
        "tle_line1": "1 30004U 99025MD  25336.45371571  .00001693  00000+0  85965-3 0  9998",
        "tle_line2": "2 30004  99.2239 157.1924 0038861  11.9169  20.7006 14.17013982971610"
      },
      "geometry": {
        "type": "Point",
        "coordinates": [
          161.39952139006584,
          -19.721590883981733
        ]
      }
    },
    {
      "type": "Feature",
      "properties": {
        "norad_id": 30005,
        "name": "FENGYUN 1C DEB",
        "group": "fengyun-1c-debris",
        "lat": -39.032343003517205,
        "lon": 112.18026214934828,
        "alt_km": 1116.930499490828,
        "timestamp": "2025-12-03T06:58:43.510982+00:00",
        "meta_object_name": "FENGYUN 1C DEB",
        "meta_object_id": "1999-025ME",
        "meta_epoch": "2025-12-02T08:37:22.106496",
        "meta_mean_motion": 13.5218389,
        "meta_eccentricity": 0.0346437,
        "meta_inclination": 99.3009,
        "meta_ra_of_asc_node": 298.9398,
        "meta_arg_of_pericenter": 119.6138,
        "meta_mean_anomaly": 243.9983,
        "meta_ephemeris_type": 0,
        "meta_classification_type": "U",
        "meta_norad_cat_id": 30005,
        "meta_element_set_no": 999,
        "meta_rev_at_epoch": 92806,
        "meta_bstar": 0.0012645379,
        "meta_mean_motion_dot": 1.177e-05,
        "meta_mean_motion_ddot": 0,
        "tle_line1": "1 30005U 99025ME  25336.35928364  .00001177  00000+0  12645-2 0  9997",
        "tle_line2": "2 30005  99.3009 298.9398 0346437 119.6138 243.9983 13.52183890928067"
      },
      "geometry": {
        "type": "Point",
        "coordinates": [
          112.18026214934828,
          -39.032343003517205
        ]
      }
    },
    {
      "type": "Feature",
      "properties": {
        "norad_id": 30007,
        "name": "FENGYUN 1C DEB",
        "group": "fengyun-1c-debris",
        "lat": 62.91711545318502,
        "lon": 76.63359131984747,
        "alt_km": 788.4354779503701,
        "timestamp": "2025-12-03T06:58:43.510993+00:00",
        "meta_object_name": "FENGYUN 1C DEB",
        "meta_object_id": "1999-025MG",
        "meta_epoch": "2025-12-02T17:13:15.885408",
        "meta_mean_motion": 14.25276448,
        "meta_eccentricity": 0.0065651,
        "meta_inclination": 99.1777,
        "meta_ra_of_asc_node": 237.6033,
        "meta_arg_of_pericenter": 42.7238,
        "meta_mean_anomaly": 12.4582,
        "meta_ephemeris_type": 0,
        "meta_classification_type": "U",
        "meta_norad_cat_id": 30007,
        "meta_element_set_no": 999,
        "meta_rev_at_epoch": 97213,
        "meta_bstar": 0.0023557,
        "meta_mean_motion_dot": 5.626e-05,
        "meta_mean_motion_ddot": 0,
        "tle_line1": "1 30007U 99025MG  25336.71754497  .00005626  00000+0  23557-2 0  9990",
        "tle_line2": "2 30007  99.1777 237.6033 0065651  42.7238  12.4582 14.25276448972132"
      },
      "geometry": {
        "type": "Point",
        "coordinates": [
          76.63359131984747,
          62.91711545318502
        ]
      }
    },
    {
      "type": "Feature",
      "properties": {
        "norad_id": 30008,
        "name": "FENGYUN 1C DEB",
        "group": "fengyun-1c-debris",
        "lat": 63.75949171566128,
        "lon": -87.2202909377683,
        "alt_km": 692.7703201879458,
        "timestamp": "2025-12-03T06:58:43.511006+00:00",
        "meta_object_name": "FENGYUN 1C DEB",
        "meta_object_id": "1999-025MH",
        "meta_epoch": "2025-12-02T21:07:56.166816",
        "meta_mean_motion": 14.65927815,
        "meta_eccentricity": 0.0038536,
        "meta_inclination": 99.367,
        "meta_ra_of_asc_node": 291.8765,
        "meta_arg_of_pericenter": 223.5412,
        "meta_mean_anomaly": 198.1591,
        "meta_ephemeris_type": 0,
        "meta_classification_type": "U",
        "meta_norad_cat_id": 30008,
        "meta_element_set_no": 999,
        "meta_rev_at_epoch": 98915,
        "meta_bstar": 0.0029269,
        "meta_mean_motion_dot": 0.00016162,
        "meta_mean_motion_ddot": 0,
        "tle_line1": "1 30008U 99025MH  25336.88051119  .00016162  00000+0  29269-2 0  9993",
        "tle_line2": "2 30008  99.3670 291.8765 0038536 223.5412 198.1591 14.65927815989153"
      },
      "geometry": {
        "type": "Point",
        "coordinates": [
          -87.2202909377683,
          63.75949171566128
        ]
      }
    },
    {
      "type": "Feature",
      "properties": {
        "norad_id": 30009,
        "name": "FENGYUN 1C DEB",
        "group": "fengyun-1c-debris",
        "lat": 47.50337739684471,
        "lon": 22.297928619292918,
        "alt_km": 840.4537412793215,
        "timestamp": "2025-12-03T06:58:43.511016+00:00",
        "meta_object_name": "FENGYUN 1C DEB",
        "meta_object_id": "1999-025MJ",
        "meta_epoch": "2025-12-02T15:22:05.950560",
        "meta_mean_motion": 14.04820985,
        "meta_eccentricity": 0.00638582,
        "meta_inclination": 99.0156,
        "meta_ra_of_asc_node": 31.6305,
        "meta_arg_of_pericenter": 4.2927,
        "meta_mean_anomaly": 355.8775,
        "meta_ephemeris_type": 0,
        "meta_classification_type": "U",
        "meta_norad_cat_id": 30009,
        "meta_element_set_no": 999,
        "meta_rev_at_epoch": 96341,
        "meta_bstar": 0.00068843545,
        "meta_mean_motion_dot": 1.08e-05,
        "meta_mean_motion_ddot": 0,
        "tle_line1": "1 30009U 99025MJ  25336.64034665  .00001080  00000+0  68844-3 0  9991",
        "tle_line2": "2 30009  99.0156  31.6305 0063858   4.2927 355.8775 14.04820985963410"
      },
      "geometry": {
        "type": "Point",
        "coordinates": [
          22.297928619292918,
          47.50337739684471
        ]
      }
    },
    {
      "type": "Feature",
      "properties": {
        "norad_id": 30010,
        "name": "FENGYUN 1C DEB",
        "group": "fengyun-1c-debris",
        "lat": -79.44293379667846,
        "lon": -131.8711174567334,
        "alt_km": 775.0950702321115,
        "timestamp": "2025-12-03T06:58:43.511026+00:00",
        "meta_object_name": "FENGYUN 1C DEB",
        "meta_object_id": "1999-025MK",
        "meta_epoch": "2025-12-02T19:38:44.347776",
        "meta_mean_motion": 14.24976046,
        "meta_eccentricity": 0.0072385,
        "meta_inclination": 99.0703,
        "meta_ra_of_asc_node": 168.6442,
        "meta_arg_of_pericenter": 238.1452,
        "meta_mean_anomaly": 135.7131,
        "meta_ephemeris_type": 0,
        "meta_classification_type": "U",
        "meta_norad_cat_id": 30010,
        "meta_element_set_no": 999,
        "meta_rev_at_epoch": 98119,
        "meta_bstar": 0.00019011,
        "meta_mean_motion_dot": 4.09e-06,
        "meta_mean_motion_ddot": 0,
        "tle_line1": "1 30010U 99025MK  25336.81856884  .00000409  00000+0  19011-3 0  9993",
        "tle_line2": "2 30010  99.0703 168.6442 0072385 238.1452 135.7131 14.24976046981197"
      },
      "geometry": {
        "type": "Point",
        "coordinates": [
          -131.8711174567334,
          -79.44293379667846
        ]
      }
    },
    {
      "type": "Feature",
      "properties": {
        "norad_id": 30012,
        "name": "FENGYUN 1C DEB",
        "group": "fengyun-1c-debris",
        "lat": 59.63366242311514,
        "lon": -133.02890137735625,
        "alt_km": 874.8690412515762,
        "timestamp": "2025-12-03T06:58:43.511037+00:00",
        "meta_object_name": "FENGYUN 1C DEB",
        "meta_object_id": "1999-025MM",
        "meta_epoch": "2025-12-02T17:07:28.697376",
        "meta_mean_motion": 13.857537,
        "meta_eccentricity": 0.0136817,
        "meta_inclination": 99.4658,
        "meta_ra_of_asc_node": 29.8447,
        "meta_arg_of_pericenter": 172.2449,
        "meta_mean_anomaly": 309.6894,
        "meta_ephemeris_type": 0,
        "meta_classification_type": "U",
        "meta_norad_cat_id": 30012,
        "meta_element_set_no": 999,
        "meta_rev_at_epoch": 95409,
        "meta_bstar": 0.00039587,
        "meta_mean_motion_dot": 4.42e-06,
        "meta_mean_motion_ddot": 0,
        "tle_line1": "1 30012U 99025MM  25336.71352659  .00000442  00000+0  39587-3 0  9992",
        "tle_line2": "2 30012  99.4658  29.8447 0136817 172.2449 309.6894 13.85753700954093"
      },
      "geometry": {
        "type": "Point",
        "coordinates": [
          -133.02890137735625,
          59.63366242311514
        ]
      }
    }
  ]
}